ONEWEB-0446             
1 51640U 22012U   25058.45610893 -.00000527  00000+0 -15459-2 0  9990
2 51640  87.8884 130.9119 0001771  95.7057 264.4272 13.10372612147155
ONEWEB-0448             
1 51641U 22012V   25058.46109504 -.00000490  00000+0 -14396-2 0  9992
2 51641  87.8886 130.9110 0001893 106.8062 253.3273 13.10374149147126
ONEWEB-0449             
1 51642U 22012W   25058.46607990 -.00000352  00000+0 -10439-2 0  9996
2 51642  87.8879 130.8908 0001688 108.8215 251.3096 13.10374454147138
ONEWEB-0451             
1 51643U 22012X   25058.53184568  .00000063  00000+0  12876-3 0  9991
2 51643  87.9020 100.4010 0001723  99.6557 260.4769 13.17646975151153
ONEWEB-0452             
1 51644U 22012Y   25058.53015383  .00000082  00000+0  17698-3 0  9998
2 51644  87.9028 100.4572 0001832 107.6521 252.4811 13.17647047151168
ONEWEB-0456             
1 51646U 22012AA  25058.24697224  .00000254  00000+0  69261-3 0  9992
2 51646  87.8879 130.8973 0002097 101.3396 258.7967 13.10375098147141
ONEWEB-0457             
1 51647U 22012AB  25058.45278945 -.00000528  00000+0 -15484-2 0  9994
2 51647  87.8882 130.9014 0001484 105.5185 254.6106 13.10371904147179
ONEWEB-0458             
1 51648U 22012AC  25058.24531122  .00000135  00000+0  35166-3 0  9993
2 51648  87.8873 130.9405 0001939 107.4108 252.7231 13.10374658147105
